NOAA 15
1 25338U 98030A   20049.93820241  .00000019  00000-0  26573-4 0  9992
2 25338  98.7294  75.5241 0009482 247.8600 112.1573 14.25951531131940
NOAA 18
1 28654U 05018A   20049.87605276  .00000081  00000-0  68595-4 0  9991
2 28654  99.0620 105.0935 0014024 204.3713 155.6797 14.12489566760039
NOAA 19
1 33591U 09005A   20049.94265517  .00000028  00000-0  40350-4 0  9995
2 33591  99.1951  52.1821 0014756  53.4232 306.8295 14.12396077568268
ISS (ZARYA)
1 25544U 98067A   20049.96409013  .00000729  00000-0  21299-4 0  9992
2 25544  51.6440 218.3706 0004772 287.5557 210.1442 15.49171927213532
